OBJECT_NAME,OBJECT_ID,EPOCH,MEAN_MOTION,ECCENTRICITY,INCLINATION,RA_OF_ASC_NODE,ARG_OF_PERICENTER,MEAN_ANOMALY,EPHEMERIS_TYPE,CLASSIFICATION_TYPE,NORAD_CAT_ID,ELEMENT_SET_NO,REV_AT_EPOCH,BSTAR,MEAN_MOTION_DOT,MEAN_MOTION_DDOT
LAPAN-A3,2016-040E,2026-07-06T20:04:31.052928,15.33240216,.0008566,97.1498,183.3383,312.5162,47.5357,0,U,41603,999,55782,.1042E-3,.3274E-4,0
GAOFEN-3,2016-049A,2026-07-06T20:33:38.697696,14.42217514,.0001729,98.4016,195.3456,91.9763,268.1625,0,U,41727,999,52148,-.31564E-4,-.147E-5,0
SKYSAT-C4,2016-058B,2026-07-06T14:01:40.132128,15.49232259,.0003097,96.9168,208.5508,132.5981,227.5533,0,U,41771,999,54847,.26186E-3,.14207E-3,0
SKYSAT-C5,2016-058C,2026-07-06T14:24:43.688160,15.34762540,.0002418,97.0458,227.3764,177.1125,183.0133,0,U,41772,999,54672,.19549E-3,.6513E-4,0
SKYSAT-C2,2016-058D,2026-07-06T14:15:23.124096,15.42537650,.000256,97.0163,208.9626,24.3070,335.8299,0,U,41773,999,54804,.2435E-3,.10488E-3,0
SKYSAT-C3,2016-058E,2026-07-06T14:28:35.006016,15.53419232,.0001906,96.9001,217.7120,134.7094,225.4316,0,U,41774,999,54912,.3022E-3,.19057E-3,0
ALSAT-1B,2016-059C,2026-07-06T21:09:22.159008,14.72290909,.0009694,97.7754,195.7951,154.2335,205.9357,0,U,41785,999,52347,.83658E-4,.482E-5,0
PATHFINDER 1,2016-059E,2026-07-06T16:52:32.814048,14.67686421,.0029354,97.8171,186.0989,141.7180,218.6117,0,U,41787,999,52257,.11395E-3,.606E-5,0
SCATSAT 1,2016-059H,2026-07-06T16:34:25.510656,14.79572703,.0054583,98.1180,251.6573,183.7991,176.2814,0,U,41790,999,10447,.17867E-3,.1315E-4,0
GOKTURK 1A,2016-073A,2026-07-06T21:03:44.019648,14.62790083,.0001418,98.1221,82.2411,79.2761,280.8601,0,U,41875,999,51170,.1129E-3,.529E-5,0
RESOURCESAT-2A,2016-074A,2026-07-06T20:21:28.111392,14.21606292,.0002855,98.7516,261.1917,45.8255,314.3156,0,U,41877,999,49709,-.29858E-4,-.11E-5,0
CARTOSAT-2D,2017-008A,2026-07-06T20:26:30.877728,15.19238468,.0005119,97.4087,246.7899,163.4287,196.7116,0,U,41948,999,52056,.9599E-4,.1955E-4,0
SENTINEL-2B,2017-013A,2026-07-06T20:35:17.314656,14.30813113,.000119,98.5681,262.3546,89.6491,270.4828,0,U,42063,999,48745,-.10747E-4,-.72E-6,0
CARTOSAT-2E,2017-036C,2026-07-06T09:47:56.518656,15.19324226,.00027513,97.4260,246.8938,216.0801,144.0249,0,U,42767,999,50106,.14512509E-3,.2997E-4,0
FORMOSAT-5,2017-049A,2026-07-06T20:17:15.564192,14.50906136,.0011895,98.2248,262.7180,28.8600,331.3250,0,U,42920,999,46952,.44259E-4,.131E-5,0
SENTINEL-5P,2017-064A,2026-07-06T17:26:08.004192,14.19522294,.0001099,98.7927,129.7191,92.1824,267.9478,0,U,42969,999,45233,.44456E-4,.49E-6,0
SKYSAT-C11,2017-068A,2026-07-06T09:14:18.059136,15.58959674,.00006177,97.4373,337.0679,157.6549,202.4734,0,U,42987,999,48623,.3866172E-3,.29976E-3,0
SKYSAT-C10,2017-068B,2026-07-06T20:26:09.286368,15.34999647,.0001295,97.4529,324.8970,109.0995,251.0388,0,U,42988,999,48537,.25401E-3,.8544E-4,0
SKYSAT-C9,2017-068C,2026-07-06T20:08:27.412224,15.42069291,.0009202,97.4448,326.0091,71.4255,288.7991,0,U,42989,999,48578,.23461E-3,.995E-4,0
SKYSAT-C8,2017-068D,2026-07-06T17:27:42.955200,15.37375180,.0001193,97.4547,324.6471,96.8882,263.2498,0,U,42990,999,48531,.24869E-3,.9028E-4,0
SKYSAT-C7,2017-068E,2026-07-06T20:26:51.262080,15.37329351,.0006434,97.4556,325.7640,48.3351,311.8443,0,U,42991,999,48539,.22472E-3,.8141E-4,0
SKYSAT-C6,2017-068F,2026-07-06T20:15:26.667360,15.34319314,.0005175,97.4593,325.6474,98.0582,262.1248,0,U,42992,999,48533,.21494E-3,.7063E-4,0
CARTOSAT-2F,2018-004A,2026-07-06T20:04:01.848864,15.19226004,.0001979,97.4772,247.2782,153.8700,206.2634,0,U,43111,999,47031,.11565E-3,.2367E-4,0
GAOFEN-1 02,2018-031A,2026-07-06T21:13:31.179360,14.76466269,.0001942,98.0512,250.3555,330.7012,29.4088,0,U,43259,999,44560,.16218E-3,.1077E-4,0
GAOFEN-1 03,2018-031B,2026-07-06T20:41:54.413376,14.76454460,.0003041,98.0508,250.1898,37.0888,323.0532,0,U,43260,999,44559,.1038E-3,.671E-5,0
GAOFEN-1 04,2018-031D,2026-07-06T20:06:59.203872,14.76463971,.0001648,98.0513,250.3590,58.6939,301.4431,0,U,43262,999,44558,.1017E-3,.656E-5,0
SENTINEL-3B,2018-039A,2026-07-06T16:27:33.590880,14.26740398,.000096,98.6239,254.9376,118.2910,241.8368,0,U,43437,999,42690,.5845E-4,.98E-6,0
GAOFEN-5 01,2018-043A,2026-07-06T20:37:51.135168,14.60619475,.0002528,98.4582,159.8603,48.1894,311.9521,0,U,43461,999,43456,.73222E-4,.307E-5,0
GAOFEN-6,2018-048A,2026-07-06T14:08:22.799328,14.76375241,.001204,98.0955,250.2710,105.7369,254.5169,0,U,43484,999,43625,-.2592E-5,-.71E-6,0
GAOFEN-11 01,2018-063A,2026-07-06T20:35:03.653952,15.55881395,.0002272,97.1273,254.6876,239.9765,120.1265,0,U,43585,999,44340,.1538E-3,.10552E-3,0
ICESAT-2,2018-070A,2026-07-06T17:36:05.265792,15.28246807,.0005971,92.0084,296.2611,82.8286,277.3642,0,U,43613,999,43544,.26169E-3,.7203E-4,0
