LAPAN-A3                
1 41603U 16040E   26187.83647052  .00003274  00000+0  10420-3 0  9999
2 41603  97.1498 183.3383 0008566 312.5162  47.5357 15.33240216557823
GAOFEN-3                
1 41727U 16049A   26187.85669789 -.00000147  00000+0 -31564-4 0  9999
2 41727  98.4016 195.3456 0001729  91.9763 268.1625 14.42217514521489
SKYSAT-C4               
1 41771U 16058B   26187.58449227  .00014207  00000+0  26186-3 0  9994
2 41771  96.9168 208.5508 0003097 132.5981 227.5533 15.49232259548474
SKYSAT-C5               
1 41772U 16058C   26187.60050565  .00006513  00000+0  19549-3 0  9997
2 41772  97.0458 227.3764 0002418 177.1125 183.0133 15.34762540546726
SKYSAT-C2               
1 41773U 16058D   26187.59401764  .00010488  00000+0  24350-3 0  9999
2 41773  97.0163 208.9626 0002560  24.3070 335.8299 15.42537650548040
SKYSAT-C3               
1 41774U 16058E   26187.60318294  .00019057  00000+0  30220-3 0  9991
2 41774  96.9001 217.7120 0001906 134.7094 225.4316 15.53419232549123
ALSAT-1B                
1 41785U 16059C   26187.88150647  .00000482  00000+0  83658-4 0  9996
2 41785  97.7754 195.7951 0009694 154.2335 205.9357 14.72290909523479
PATHFINDER 1            
1 41787U 16059E   26187.70315757  .00000606  00000+0  11395-3 0  9990
2 41787  97.8171 186.0989 0029354 141.7180 218.6117 14.67686421522570
SCATSAT 1               
1 41790U 16059H   26187.69057304  .00001315  00000+0  17867-3 0  9991
2 41790  98.1180 251.6573 0054583 183.7991 176.2814 14.79572703104472
GOKTURK 1A              
1 41875U 16073A   26187.87759282  .00000529  00000+0  11290-3 0  9995
2 41875  98.1221  82.2411 0001418  79.2761 280.8601 14.62790083511703
RESOURCESAT-2A          
1 41877U 16074A   26187.84824203 -.00000110  00000+0 -29858-4 0  9999
2 41877  98.7516 261.1917 0002855  45.8255 314.3156 14.21606292497096
CARTOSAT-2D             
1 41948U 17008A   26187.85174627  .00001955  00000+0  95990-4 0  9991
2 41948  97.4087 246.7899 0005119 163.4287 196.7116 15.19238468520561
SENTINEL-2B             
1 42063U 17013A   26187.85783929 -.00000072  00000+0 -10747-4 0  9995
2 42063  98.5681 262.3546 0001190  89.6491 270.4828 14.30813113487454
CARTOSAT-2E             
1 42767U 17036C   26187.40829304  .00002997  00000+0  14513-3 0  9990
2 42767  97.4260 246.8938 0002751 216.0801 144.0249 15.19324226501060
FORMOSAT-5              
1 42920U 17049A   26187.84531903  .00000131  00000+0  44259-4 0  9997
2 42920  98.2248 262.7180 0011895  28.8600 331.3250 14.50906136469524
SENTINEL-5P             
1 42969U 17064A   26187.72648153  .00000049  00000+0  44456-4 0  9997
2 42969  98.7927 129.7191 0001099  92.1824 267.9478 14.19522294452338
SKYSAT-C11              
1 42987U 17068A   26187.38493124  .00029976  00000+0  38662-3 0  9990
2 42987  97.4373 337.0679 0000617 157.6549 202.4734 15.58959674486235
SKYSAT-C10              
1 42988U 17068B   26187.85149637  .00008544  00000+0  25401-3 0  9995
2 42988  97.4529 324.8970 0001295 109.0995 251.0388 15.34999647485373
SKYSAT-C9               
1 42989U 17068C   26187.83920616  .00009950  00000+0  23461-3 0  9994
2 42989  97.4448 326.0091 0009202  71.4255 288.7991 15.42069291485783
SKYSAT-C8               
1 42990U 17068D   26187.72758050  .00009028  00000+0  24869-3 0  9994
2 42990  97.4547 324.6471 0001193  96.8882 263.2498 15.37375180485319
SKYSAT-C7               
1 42991U 17068E   26187.85198220  .00008141  00000+0  22472-3 0  9999
2 42991  97.4556 325.7640 0006434  48.3351 311.8443 15.37329351485393
SKYSAT-C6               
1 42992U 17068F   26187.84405865  .00007063  00000+0  21494-3 0  9990
2 42992  97.4593 325.6474 0005175  98.0582 262.1248 15.34319314485338
CARTOSAT-2F             
1 43111U 18004A   26187.83613251  .00002367  00000+0  11565-3 0  9994
2 43111  97.4772 247.2782 0001979 153.8700 206.2634 15.19226004470318
GAOFEN-1 02             
1 43259U 18031A   26187.88438865  .00001077  00000+0  16218-3 0  9995
2 43259  98.0512 250.3555 0001942 330.7012  29.4088 14.76466269445608
GAOFEN-1 03             
1 43260U 18031B   26187.86243534  .00000671  00000+0  10380-3 0  9995
2 43260  98.0508 250.1898 0003041  37.0888 323.0532 14.76454460445598
GAOFEN-1 04             
1 43262U 18031D   26187.83818523  .00000656  00000+0  10170-3 0  9990
2 43262  98.0513 250.3590 0001648  58.6939 301.4431 14.76463971445588
SENTINEL-3B             
1 43437U 18039A   26187.68580545  .00000098  00000+0  58450-4 0  9999
2 43437  98.6239 254.9376 0000960 118.2910 241.8368 14.26740398426900
GAOFEN-5 01             
1 43461U 18043A   26187.85961962  .00000307  00000+0  73222-4 0  9993
2 43461  98.4582 159.8603 0002528  48.1894 311.9521 14.60619475434566
GAOFEN-6                
1 43484U 18048A   26187.58915277 -.00000071  00000+0 -25920-5 0  9994
2 43484  98.0955 250.2710 0012040 105.7369 254.5169 14.76375241436258
GAOFEN-11 01            
1 43585U 18063A   26187.85768118  .00010552  00000+0  15380-3 0  9993
2 43585  97.1273 254.6876 0002272 239.9765 120.1265 15.55881395443400
ICESAT-2                
1 43613U 18070A   26187.73339428  .00007203  00000+0  26169-3 0  9994
2 43613  92.0084 296.2611 0005971  82.8286 277.3642 15.28246807435449
